NORAD_CAT_ID,OBJECT_NAME,OBJECT_TYPE,EPOCH,MEAN_MOTION,ECCENTRICITY,INCLINATION,RA_OF_ASC_NODE,ARG_OF_PERICENTER,MEAN_ANOMALY,BSTAR,MEAN_MOTION_DOT,MEAN_MOTION_DDOT,TLE_LINE0,TLE_LINE1,TLE_LINE2,SEMIMAJOR_AXIS,PERIOD,APOGEE,PERIGEE,DECAYED
55287.0,STARLINK-5341,PAYLOAD,2024-05-03 14:27:50,14.98330695,0.0003071,69.9992,266.7843,268.3373,91.7435,4.3905e-05,4.31e-06,0.0,0 STARLINK-5341,1 55287U 23010U   24124.60266592  .00000431  00000-0  43905-4 0  9995,2 55287  69.9992 266.7843 0003071 268.3373  91.7435 14.98330695 72637,6950.191,96.107,574.19,569.921,0.0
55287.0,STARLINK-5341,PAYLOAD,2024-05-03 19:16:14,14.98333258,0.0003076,69.9994,266.2797,269.1735,90.9072,3.2249e-05,2.92e-06,0.0,0 STARLINK-5341,1 55287U 23010U   24124.80294441  .00000292  00000-0  32249-4 0  9995,2 55287  69.9994 266.2797 0003076 269.1735  90.9072 14.98333258 72667,6950.183,96.107,574.186,569.91,0.0
55287.0,STARLINK-5341,PAYLOAD,2024-05-04 03:16:55,14.98319404,0.0003124,69.9993,265.4377,268.9058,91.1743,1.1828e-05,4.8e-07,0.0,0 STARLINK-5341,1 55287U 23010U   24125.13675385  .00000048  00000-0  11828-4 0  9991,2 55287  69.9993 265.4377 0003124 268.9058  91.1743 14.98319404 72407,6950.226,96.108,574.262,569.919,0.0
55287.0,STARLINK-5341,PAYLOAD,2024-05-04 12:53:45,14.98305754,0.0002934,69.999,264.4268,262.178,97.9046,-0.00013655,-1.721e-05,0.0,0 STARLINK-5341,1 55287U 23010U   24125.53733161 -.00001721  00000-0 -13655-3 0  9992,2 55287  69.9990 264.4268 0002934 262.1780  97.9046 14.98305754 72467,6950.268,96.109,574.172,570.094,0.0
55287.0,STARLINK-5341,PAYLOAD,2024-05-04 19:18:18,14.98301041,0.0002829,70.0001,263.7559,267.9738,92.1097,-0.00022551,-2.781e-05,0.0,0 STARLINK-5341,1 55287U 23010U   24125.80438151 -.00002781  00000-0 -22551-3 0  9995,2 55287  70.0001 263.7559 0002829 267.9738  92.1097 14.98301041 72500,6950.282,96.109,574.114,570.181,0.0
55287.0,STARLINK-5341,PAYLOAD,2024-05-05 11:19:37,14.98331027,0.0002645,69.9999,262.071,264.9423,95.1435,9.5391e-05,1.045e-05,0.0,0 STARLINK-5341,1 55287U 23010U   24126.47195946  .00001045  00000-0  95391-4 0  9994,2 55287  69.9999 262.0710 0002645 264.9423  95.1435 14.98331027 72605,6950.19,96.107,573.893,570.216,0.0
55287.0,STARLINK-5341,PAYLOAD,2024-05-05 14:31:53,14.98330715,0.0002947,69.9996,261.7348,271.23,88.8522,0.00012903,1.447e-05,0.0,0 STARLINK-5341,1 55287U 23010U   24126.60547962  .00001447  00000-0  12903-3 0  9991,2 55287  69.9996 261.7348 0002947 271.2300  88.8522 14.98330715 72930,6950.191,96.107,574.104,570.007,0.0
55287.0,STARLINK-5341,PAYLOAD,2024-05-05 19:20:17,14.98335229,0.0002704,70.0004,261.2311,272.6726,87.4123,0.00015625,1.772e-05,0.0,0 STARLINK-5341,1 55287U 23010U   24126.80575638  .00001772  00000-0  15625-3 0  9999,2 55287  70.0004 261.2311 0002704 272.6726  87.4123 14.98335229 72966,6950.177,96.107,573.921,570.162,0.0
55287.0,STARLINK-5341,PAYLOAD,2024-05-06 01:44:49,14.98341258,0.0002795,70.0002,260.5578,272.159,87.9249,0.00019247,2.205e-05,0.0,0 STARLINK-5341,1 55287U 23010U   24127.07279091  .00002205  00000-0  19247-3 0  9999,2 55287  70.0002 260.5578 0002795 272.1590  87.9249 14.98341258 72698,6950.158,96.106,573.966,570.081,0.0
55287.0,STARLINK-5341,PAYLOAD,2024-05-06 14:33:53,14.98342816,0.0002962,69.9998,259.2103,274.6123,85.4697,0.00063546,7.5e-05,0.0,0 STARLINK-5341,1 55287U 23010U   24127.60686662  .00007500  00000-0  63546-3 0  9998,2 55287  69.9998 259.2103 0002962 274.6123  85.4697 14.98342816 73088,6950.153,96.106,574.077,569.96,0.0
55287.0,STARLINK-5341,PAYLOAD,2024-05-06 17:46:09,14.98357378,0.0002849,70.001,258.8731,274.8994,85.184,0.00089195,0.00010573,0.0,0 STARLINK-5341,1 55287U 23010U   24127.74038774  .00010573  00000-0  89195-3 0  9990,2 55287  70.0010 258.8731 0002849 274.8994  85.1840 14.98357378 73109,6950.108,96.105,573.953,569.993,0.0
55287.0,STARLINK-5341,PAYLOAD,2024-05-07 01:46:49,14.98349916,0.0001793,70.0037,258.0328,272.4886,87.6068,0.0002869,3.334e-05,0.0,0 STARLINK-5341,1 55287U 23010U   24128.07418955  .00003334  00000-0  28690-3 0  9990,2 55287  70.0037 258.0328 0001793 272.4886  87.6068 14.98349916 72841,6950.131,96.106,573.242,570.75,0.0
55287.0,STARLINK-5341,PAYLOAD,2024-05-07 12:59:46,14.98337641,0.0003081,70.0015,256.8534,271.7232,88.3574,-0.00029837,-3.652e-05,0.0,0 STARLINK-5341,1 55287U 23010U   24128.54150504 -.00003652  00000-0 -29837-3 0  9994,2 55287  70.0015 256.8534 0003081 271.7232  88.3574 14.98337641 72911,6950.169,96.107,574.176,569.893,0.0
55287.0,STARLINK-5341,PAYLOAD,2024-05-07 14:35:53,14.98341193,0.0002987,70.0015,256.6852,270.9662,89.1155,-0.00017483,-2.179e-05,0.0,0 STARLINK-5341,1 55287U 23010U   24128.60826372 -.00002179  00000-0 -17483-3 0  9991,2 55287  70.0015 256.6852 0002987 270.9662  89.1155 14.98341193 73231,6950.158,96.106,574.099,569.947,0.0
55287.0,STARLINK-5341,PAYLOAD,2024-05-07 17:48:09,14.98340555,0.0003027,70.0018,256.3485,271.2897,88.7915,-0.00019889,-2.466e-05,0.0,0 STARLINK-5341,1 55287U 23010U   24128.74178045 -.00002466  00000-0 -19889-3 0  9994,2 55287  70.0018 256.3485 0003027 271.2897  88.7915 14.98340555 73255,6950.16,96.106,574.129,569.921,0.0
55287.0,STARLINK-5341,PAYLOAD,2024-05-08 13:01:46,14.98335543,0.0003029,70.0022,254.3288,268.5939,91.4873,0.00041769,4.895e-05,0.0,0 STARLINK-5341,1 55287U 23010U   24129.54290228  .00004895  00000-0  41769-3 0  9999,2 55287  70.0022 254.3288 0003029 268.5939  91.4873 14.98335543 73061,6950.176,96.107,574.146,569.936,0.0
55287.0,STARLINK-5341,PAYLOAD,2024-05-08 14:37:54,14.98339379,0.0003006,70.0021,254.1604,267.9859,92.0955,0.00058761,6.927e-05,0.0,0 STARLINK-5341,1 55287U 23010U   24129.60966130  .00006927  00000-0  58761-3 0  9996,2 55287  70.0021 254.1604 0003006 267.9859  92.0955 14.98339379 73383,6950.164,96.106,574.118,569.94,0.0
55287.0,STARLINK-5341,PAYLOAD,2024-05-08 17:50:10,14.98340042,0.0003038,70.0022,253.8237,268.0658,92.0153,0.0006872,8.118e-05,0.0,0 STARLINK-5341,1 55287U 23010U   24129.74318130  .00008118  00000-0  68720-3 0  9992,2 55287  70.0022 253.8237 0003038 268.0658  92.0153 14.98340042 73408,6950.162,96.106,574.138,569.915,0.0
55287.0,STARLINK-5341,PAYLOAD,2024-05-09 13:03:47,14.98332184,0.0002986,70.0021,251.8038,271.9606,88.1211,0.00022276,2.566e-05,0.0,0 STARLINK-5341,1 55287U 23010U   24130.54430351  .00002566  00000-0  22276-3 0  9999,2 55287  70.0021 251.8038 0002986 271.9606  88.1211 14.98332184 73219,6950.186,96.107,574.126,569.976,0.0
55287.0,STARLINK-5341,PAYLOAD,2024-05-09 14:39:55,14.98331813,0.0003011,70.0021,251.6347,270.6747,89.4067,0.0001728,1.97e-05,0.0,0 STARLINK-5341,1 55287U 23010U   24130.61106322  .00001970  00000-0  17280-3 0  9992,2 55287  70.0021 251.6347 0003011 270.6747  89.4067 14.98331813 73538,6950.187,96.107,574.145,569.96,0.0
55287.0,STARLINK-5341,PAYLOAD,2024-05-09 17:52:11,14.98335079,0.0003031,70.0017,251.2983,270.4209,89.6603,0.00023682,2.734e-05,0.0,0 STARLINK-5341,1 55287U 23010U   24130.74458187  .00002734  00000-0  23682-3 0  9997,2 55287  70.0017 251.2983 0003031 270.4209  89.6603 14.98335079 73556,6950.177,96.107,574.149,569.936,0.0
55287.0,STARLINK-5341,PAYLOAD,2024-05-10 13:05:49,14.98327309,0.0002952,70.0009,249.2795,270.7969,89.2851,6.3993e-05,6.71e-06,0.0,0 STARLINK-5341,1 55287U 23010U   24131.54571014  .00000671  00000-0  63993-4 0  9999,2 55287  70.0009 249.2795 0002952 270.7969  89.2851 14.98327309 73369,6950.201,96.107,574.118,570.015,0.0
55287.0,STARLINK-5341,PAYLOAD,2024-05-10 17:54:12,14.98338317,0.0003021,70.0001,248.7742,269.1746,90.9067,0.00011896,1.327e-05,0.0,0 STARLINK-5341,1 55287U 23010U   24131.74598219  .00001327  00000-0  11896-3 0  9990,2 55287  70.0001 248.7742 0003021 269.1746  90.9067 14.98338317 73392,6950.167,96.106,574.132,569.933,0.0
55287.0,STARLINK-5341,PAYLOAD,2024-05-11 08:19:24,14.98367855,0.0003531,70.0014,247.2588,276.9398,83.1359,0.00093853,0.00011134,0.0,0 STARLINK-5341,1 55287U 23010U   24132.34680855  .00011134  00000-0  93853-3 0  9995,2 55287  70.0014 247.2588 0003531 276.9398  83.1359 14.98367855 73480,6950.076,96.105,574.395,569.487,0.0
55287.0,STARLINK-5341,PAYLOAD,2024-05-11 17:56:11,14.98343836,0.0002906,70.0022,246.2503,277.8651,82.2178,-0.00023346,-2.878e-05,0.0,0 STARLINK-5341,1 55287U 23010U   24132.74736044 -.00002878  00000-0 -23346-3 0  9998,2 55287  70.0022 246.2503 0002906 277.8651  82.2178 14.98343836 73541,6950.15,96.106,574.035,569.995,0.0
55287.0,STARLINK-5341,PAYLOAD,2024-05-12 13:09:54,14.98211375,0.0003205,70.002,244.23,268.7495,91.3297,-0.0031517,-0.00037385,0.0,0 STARLINK-5341,1 55287U 23010U   24133.54854964 -.00037385  00000-0 -31517-2 0  9998,2 55287  70.0020 244.2300 0003205 268.7495  91.3297 14.98211375 73668,6950.56,96.115,574.652,570.197,0.0
55287.0,STARLINK-5341,PAYLOAD,2024-05-12 14:46:03,14.9820889,0.0003113,70.0018,244.0619,268.1749,91.9054,-0.0030313,-0.00035965,0.0,0 STARLINK-5341,1 55287U 23010U   24133.61531552 -.00035965  00000-0 -30313-2 0  9996,2 55287  70.0018 244.0619 0003113 268.1749  91.9054 14.98208890 73980,6950.567,96.115,574.596,570.269,0.0
55287.0,STARLINK-5341,PAYLOAD,2024-05-12 16:22:11,14.98206296,0.0003087,70.0019,243.8937,267.8794,92.2012,-0.0029083,-0.00034514,0.0,0 STARLINK-5341,1 55287U 23010U   24133.68208138 -.00034514  00000-0 -29083-2 0  9995,2 55287  70.0019 243.8937 0003087 267.8794  92.2012 14.98206296 73994,6950.575,96.115,574.586,570.295,0.0
55287.0,STARLINK-5341,PAYLOAD,2024-05-13 00:22:52,14.98250117,0.0003575,70.0016,243.0519,259.8222,100.2534,-0.00076229,-9.158e-05,0.0,0 STARLINK-5341,1 55287U 23010U   24134.01588615 -.00009158  00000-0 -76229-3 0  9995,2 55287  70.0016 243.0519 0003575 259.8222 100.2534 14.98250117 73730,6950.44,96.112,574.79,569.82,0.0
55287.0,STARLINK-5341,PAYLOAD,2024-05-13 13:11:57,14.98308672,0.0002636,70.0018,241.7062,265.4663,94.6195,0.0017739,0.00021125,0.0,0 STARLINK-5341,1 55287U 23010U   24134.54997375  .00021125  00000-0  17739-2 0  9996,2 55287  70.0018 241.7062 0002636 265.4663  94.6195 14.98308672 74122,6950.259,96.108,573.956,570.292,0.0
